INTELSAT 30 (IS-30) [PM]
1 40271C 14062A   22250.41388889 -.00001924  00000-0  00000-0 0  2504
2 40271   0.0033 320.2953 0002409 273.9247 166.1890  1.00271762    13
INTELSAT 34 (IS-34)     
1 40874C 15039A   22241.00000000 -.00000222  00000-0  00000-0 0  2419
2 40874   0.0518 313.6320 0000634  98.4698 229.6022  1.00270874    17
INTELSAT 34 (IS-34) [PM]
1 40874C 15039A   22244.26354167 -.00000200  00000-0  00000-0 0  2445
2 40874   0.0435 315.9502 0000948  89.5514 334.2882  1.00273895    11
INTELSAT 34 (IS-34)     
1 40874C 15039A   22248.00000000 -.00003811  00000-0  00000-0 0  2480
2 40874   0.0434 308.5088 0000885 130.5560 209.5411  1.00270319    15
INTELSAT 31 (IS-31)     
1 41581C 16035A   22241.00000000 -.00000061  00000-0  00000-0 0  2413
2 41581   0.0201 205.0937 0001360   6.3797  30.6703  1.00271093    15
INTELSAT 31 (IS-31) [PM]
1 41581C 16035A   22244.36346065 -.00000061  00000-0  00000-0 0  2442
2 41581   0.0176 220.3401 0001144 340.3530 175.6021  1.00273099    19
INTELSAT 31 (IS-31)     
1 41581C 16035A   22248.00000000 -.00000061  00000-0  00000-0 0  2487
2 41581   0.0139 198.0647 0001316 357.6175  53.3555  1.00270047    12
INTELSAT 36 (IS-36)     
1 41747C 16053A   22241.00000000 -.00003527  00000-0  00000-0 0  2417
2 41747   0.0405 319.9664 0002946  45.3738  40.3543  1.00270014    18
INTELSAT 36 (IS-36) [PM]
1 41747C 16053A   22243.33005787  .00000157  00000-0  00000-0 0  2439
2 41747   0.0311 349.0841 0002704  20.7535 156.9610  1.00272492    10
INTELSAT 36 (IS-36)     
1 41747C 16053A   22248.00000000  .00000072  00000-0  00000-0 0  2482
2 41747   0.0060  67.1345 0002501 308.3862  37.0672  1.00270809    18
INTELSAT 33E            
1 41748C 16053B   22244.00000000  .00000137  00000-0  00000-0 0  2447
2 41748   0.0275 275.0405 0001780 303.3108 181.7898  1.00272639    10
INTELSAT 33E            
1 41748C 16053B   22248.00000000  .00000124  00000-0  00000-0 0  2481
2 41748   0.0001  88.5829 0001816 129.6484 185.8703  1.00273530    11
INTELSAT 33E        [PM]
1 41748C 16053B   22248.59812500 -.00001723  00000-0  00000-0 0  2488
2 41748   0.0000 354.5871 0001156  25.0999 240.3100  1.00270002    19
INTELSAT 32E        [PM]
1 41945C 17007B   22243.96015046 -.00000186  00000-0  00000-0 0  2430
2 41945   0.0003 112.1554 0000455 344.1131 186.3038  1.00274554    16
INTELSAT 32E            
1 41945C 17007B   22244.00000000 -.00000180  00000-0  00000-0 0  2445
2 41945   0.0412 326.5823 0000401 116.8214 213.5588  1.00270358    18
INTELSAT 32E            
1 41945C 17007B   22248.00000000 -.00000184  00000-0  00000-0 0  2487
2 41945   0.0001 130.8780 0000740 314.9028 215.1404  1.00270143    17
INTELSAT 32E        [PM]
1 41945C 17007B   22250.96870370 -.00000178  00000-0  00000-0 0  2506
2 41945   0.0055 122.1094 0000685 351.1821 179.2598  1.00273705    11
INTELSAT 35E            
1 42818C 17041A   22244.00000000 -.00000149  00000-0  00000-0 0  2448
2 42818   0.0360 290.2282 0001796 219.1517 156.2730  1.00272071    13
INTELSAT 35E            
1 42818C 17041A   22248.00000000 -.00003849  00000-0  00000-0 0  2486
2 42818   0.0000 161.4812 0001843 351.1821 156.9230  1.00270482    16
INTELSAT 35E        [PM]
1 42818C 17041A   22249.88113426 -.00000147  00000-0  00000-0 0  2499
2 42818   0.0030 144.2509 0001981   7.0908 117.2967  1.00271735    16
INTELSAT 37E            
1 42950C 17059A   22244.00000000 -.00000162  00000-0  00000-0 0  2449
2 42950   0.0002 176.1066 0002770 344.4653 161.5754  1.00271969    11
INTELSAT 37E            
1 42950C 17059A   22248.00000000 -.00000051  00000-0  00000-0 0  2484
2 42950   0.0088 117.0453 0002779  45.9791 163.0615  1.00271312    19
INTELSAT 37E        [PM]
1 42950C 17059A   22248.90138889 -.00003495  00000-0  00000-0 0  2485
2 42950   0.0006 159.3644 0002929   5.0067 127.0995  1.00270471    16
AZERSPACE 2 (IS-38)     
1 43632C 18074A   22241.00000000  .00000226  00000-0  00000-0 0  2419
2 43632   0.0032 143.1430 0001342  16.8266 222.3141  1.00270500    11
AZERSPACE 2 (IS-38)     
1 43632C 18074A   22248.00000000  .00000227  00000-0  00000-0 0  2484
2 43632   0.0018 128.8933 0001595  22.0899 238.2085  1.00269762    15
HORIZONS-3E             
1 43633C 18074B   22241.00000000  .00000066  00000-0  00000-0 0  2412
2 43633   0.0173 251.5723 0001744  56.6390 197.9727  1.00270246    17
HORIZONS-3E             
1 43633C 18074B   22248.00000000 -.00003672  00000-0  00000-0 0  2483
2 43633   0.0416 318.2978 0000913 344.8760 209.8985  1.00269706    18
INTELSAT 39 (IS-39)     
1 44476C 19049B   22241.00000000  .00000132  00000-0  00000-0 0  2415
2 44476   0.0035 183.7093 0000894 174.0932  41.3379  1.00270750    13
INTELSAT 39 (IS-39) [PM]
1 44476C 19049B   22244.13386574  .00000105  00000-0  00000-0 0  2448
2 44476   0.0350 310.2705 0000750  64.9206  75.2280  1.00272406    19
INTELSAT 39 (IS-39)     
1 44476C 19049B   22248.00000000 -.00003426  00000-0  00000-0 0  2489
2 44476   0.0028  73.8943 0000864 317.6628  14.4805  1.00270839    15
INTELSAT 39 (IS-39) [PM]
1 44476C 19049B   22251.11436343  .00000101  00000-0  00000-0 0  2518
2 44476   0.0479 290.8659 0000579 149.4415   9.9619  1.00270894    11
GALAXY 30 (G-30)        
1 46114C 20056C   22244.00000000  .00000124  00000-0  00000-0 0  2443
2 46114   0.0176 241.8579 0002572 282.1958  51.0905  1.00271789    15
GALAXY 30 (G-30)        
1 46114C 20056C   22248.00000000  .00000126  00000-0  00000-0 0  2483
2 46114   0.0009 127.4307 0002655  39.9113  51.7499  1.00272148    16
GALAXY 30 (G-30)    [PM]
1 46114C 20056C   22248.46656250  .00000119  00000-0  00000-0 0  2489
2 46114   0.0479 311.3180 0002063   9.6671  66.5231  1.00270711    18
